HAWK-11C                
1 62381U 24247E   26068.51221537  .00009223  00000+0  33290-3 0  9992
2 62381  45.0045 114.8762 0005900 329.7040  30.3502 15.28848020 67743
STARLINK-32830          
1 63034U 25034F   26068.73607494  .00018267  00000+0  62718-3 0  9992
2 63034  53.1578 257.9268 0001575 135.6995 224.4132 15.30208554 59096
